start=new Date('2022-01-26T00:00:00.000Z').valueOf();
sats=[{"SITE":"AFETR","ARG_OF_PERICENTER":"68.5430","TIME_SYSTEM":"UTC","PERIOD":"95.593","TLE_LINE2":"2 45557  53.0535 358.5863 0001653  68.5430 291.5735 15.06394000 98678","OBJECT_ID":"2020-025AC","MEAN_MOTION_DDOT":"0.0000000000000","MEAN_ANOMALY":"291.5735","MEAN_MOTION":"15.06394000","RCS_SIZE":"LARGE","FILE":"3283711","GP_ID":"194640901","PERIAPSIS":"546.087","ELEMENT_SET_NO":"999","OBJECT_NAME":"STARLINK-1336","SEMIMAJOR_AXIS":"6925.367","BSTAR":"-0.00011532000000","EPHEMERIS_TYPE":"0","CLASSIFICATION_TYPE":"U","INCLINATION":"53.0535","APOAPSIS":"548.377","ECCENTRICITY":"0.00016530","NORAD_CAT_ID":"45557","DECAY_DATE":null,"RA_OF_ASC_NODE":"358.5863","COUNTRY_CODE":"US","LAUNCH_DATE":"2020-04-22","REF_FRAME":"TEME","TLE_LINE1":"1 45557U 20025AC  22025.63346227 -.00001999  00000-0 -11532-3 0  9994","MEAN_ELEMENT_THEORY":"SGP4","MEAN_MOTION_DOT":"-0.00001999","OBJECT_TYPE":"PAYLOAD","EPOCH":"2022-01-25T15:12:11.140128","REV_AT_EPOCH":"9867","CENTER_NAME":"EARTH"},{"OBJECT_ID":"2020-025AD","MEAN_ANOMALY":"286.7687","MEAN_MOTION_DDOT":"0.0000000000000","TIME_SYSTEM":"UTC","ARG_OF_PERICENTER":"73.3474","SITE":"AFETR","TLE_LINE2":"2 45558  53.0561 357.5538 0001567  73.3474 286.7687 15.06401884 98707","PERIOD":"95.592","ELEMENT_SET_NO":"999","PERIAPSIS":"546.123","GP_ID":"194642152","RCS_SIZE":"LARGE","MEAN_MOTION":"15.06401884","FILE":"3283711","RA_OF_ASC_NODE":"357.5538","DECAY_DATE":null,"COUNTRY_CODE":"US","BSTAR":"0.00005530600000","INCLINATION":"53.0561","EPHEMERIS_TYPE":"0","CLASSIFICATION_TYPE":"U","SEMIMAJOR_AXIS":"6925.343","OBJECT_NAME":"STARLINK-1342","NORAD_CAT_ID":"45558","APOAPSIS":"548.293","ECCENTRICITY":"0.00015670","CENTER_NAME":"EARTH","LAUNCH_DATE":"2020-04-22","EPOCH":"2022-01-25T20:46:33.405024","OBJECT_TYPE":"PAYLOAD","MEAN_MOTION_DOT":"0.00000542","REV_AT_EPOCH":"9870","TLE_LINE1":"1 45558U 20025AD  22025.86566441  .00000542  00000-0  55306-4 0  9991","MEAN_ELEMENT_THEORY":"SGP4","REF_FRAME":"TEME"},{"SITE":"AFETR","ARG_OF_PERICENTER":"63.3522","TIME_SYSTEM":"UTC","PERIOD":"95.593","TLE_LINE2":"2 45559  53.0549 358.5683 0001697  63.3522 296.7640 15.06389383 98678","OBJECT_ID":"2020-025AE","MEAN_MOTION_DDOT":"0.0000000000000","MEAN_ANOMALY":"296.7640","MEAN_MOTION":"15.06389383","RCS_SIZE":"LARGE","FILE":"3283711","GP_ID":"194641903","PERIAPSIS":"546.071","ELEMENT_SET_NO":"999","OBJECT_NAME":"STARLINK-1344","SEMIMAJOR_AXIS":"6925.381","BSTAR":"0.00007761900000","INCLINATION":"53.0549","EPHEMERIS_TYPE":"0","CLASSIFICATION_TYPE":"U","ECCENTRICITY":"0.00016970","APOAPSIS":"548.421","NORAD_CAT_ID":"45559","DECAY_DATE":null,"RA_OF_ASC_NODE":"358.5683","COUNTRY_CODE":"US","LAUNCH_DATE":"2020-04-22","REF_FRAME":"TEME","MEAN_ELEMENT_THEORY":"SGP4","TLE_LINE1":"1 45559U 20025AE  22025.63715199  .00000874  00000-0  77619-4 0  9992","MEAN_MOTION_DOT":"0.00000874","OBJECT_TYPE":"PAYLOAD","EPOCH":"2022-01-25T15:17:29.931936","REV_AT_EPOCH":"9867","CENTER_NAME":"EARTH"},{"OBJECT_NAME":"STARLINK-1346","BSTAR":"0.00009827800000","INCLINATION":"53.0556","CLASSIFICATION_TYPE":"U","EPHEMERIS_TYPE":"0","SEMIMAJOR_AXIS":"6925.337","NORAD_CAT_ID":"45560","APOAPSIS":"548.417","ECCENTRICITY":"0.00017540","DECAY_DATE":null,"RA_OF_ASC_NODE":"348.6427","COUNTRY_CODE":"US","LAUNCH_DATE":"2020-04-22","MEAN_ELEMENT_THEORY":"SGP4","TLE_LINE1":"1 45560U 20025AF  22025.62332344  .00001183  00000-0  98278-4 0  9998","REF_FRAME":"TEME","OBJECT_TYPE":"PAYLOAD","EPOCH":"2022-01-25T14:57:35.145216","MEAN_MOTION_DOT":"0.00001183","REV_AT_EPOCH":"9881","CENTER_NAME":"EARTH","SITE":"AFETR","TIME_SYSTEM":"UTC","ARG_OF_PERICENTER":"70.5697","PERIOD":"95.592","TLE_LINE2":"2 45560  53.0556 348.6427 0001754  70.5697 289.5482 15.06403728 98811","OBJECT_ID":"2020-025AF","MEAN_MOTION_DDOT":"0.0000000000000","MEAN_ANOMALY":"289.5482","MEAN_MOTION":"15.06403728","RCS_SIZE":"LARGE","FILE":"3283711","GP_ID":"194641151","ELEMENT_SET_NO":"999","PERIAPSIS":"545.987"},{"REV_AT_EPOCH":"9992","OBJECT_TYPE":"PAYLOAD","MEAN_MOTION_DOT":"0.00008406","EPOCH":"2022-01-25T21:20:02.849568","REF_FRAME":"TEME","MEAN_ELEMENT_THEORY":"SGP4","TLE_LINE1":"1 45561U 20025AG  22025.88892187  .00008406  00000-0  54816-3 0  9997","LAUNCH_DATE":"2020-04-22","CENTER_NAME":"EARTH","APOAPSIS":"541.712","ECCENTRICITY":"0.00020650","NORAD_CAT_ID":"45561","SEMIMAJOR_AXIS":"6918.418","BSTAR":"0.00054816000000","CLASSIFICATION_TYPE":"U","INCLINATION":"53.0582","EPHEMERIS_TYPE":"0","OBJECT_NAME":"STARLINK-1348","COUNTRY_CODE":"US","RA_OF_ASC_NODE":"271.1788","DECAY_DATE":null,"FILE":"3283711","RCS_SIZE":"LARGE","MEAN_MOTION":"15.08663986","PERIAPSIS":"538.855","ELEMENT_SET_NO":"999","GP_ID":"194641401","TLE_LINE2":"2 45561  53.0582 271.1788 0002065 115.0306 245.0899 15.08663986 99927","PERIOD":"95.449","ARG_OF_PERICENTER":"115.0306","TIME_SYSTEM":"UTC","SITE":"AFETR","MEAN_ANOMALY":"245.0899","MEAN_MOTION_DDOT":"0.0000000000000","OBJECT_ID":"2020-025AG"},{"COUNTRY_CODE":"US","RA_OF_ASC_NODE":"358.5369","DECAY_DATE":null,"APOAPSIS":"548.322","ECCENTRICITY":"0.00015890","NORAD_CAT_ID":"45562","SEMIMAJOR_AXIS":"6925.356","CLASSIFICATION_TYPE":"U","BSTAR":"0.00004402800000","INCLINATION":"53.0560","EPHEMERIS_TYPE":"0","OBJECT_NAME":"STARLINK-1354","CENTER_NAME":"EARTH","REV_AT_EPOCH":"9867","OBJECT_TYPE":"PAYLOAD","MEAN_MOTION_DOT":"0.00000374","EPOCH":"2022-01-25T15:28:06.141792","REF_FRAME":"TEME","TLE_LINE1":"1 45562U 20025AH  22025.64451553  .00000374  00000-0  44028-4 0  9991","MEAN_ELEMENT_THEORY":"SGP4","LAUNCH_DATE":"2020-04-22","MEAN_ANOMALY":"288.2976","MEAN_MOTION_DDOT":"0.0000000000000","OBJECT_ID":"2020-025AH","TLE_LINE2":"2 45562  53.0560 358.5369 0001589  71.8186 288.2976 15.06397426 98671","PERIOD":"95.592","TIME_SYSTEM":"UTC","ARG_OF_PERICENTER":"71.8186","SITE":"AFETR","PERIAPSIS":"546.121","ELEMENT_SET_NO":"999","GP_ID":"194641653","FILE":"3283711","RCS_SIZE":"LARGE","MEAN_MOTION":"15.06397426"},{"BSTAR":"-0.00001700100000","INCLINATION":"53.0557","CLASSIFICATION_TYPE":"U","EPHEMERIS_TYPE":"0","SEMIMAJOR_AXIS":"6925.354","OBJECT_NAME":"STARLINK-1355","NORAD_CAT_ID":"45563","APOAPSIS":"548.396","ECCENTRICITY":"0.00017000","RA_OF_ASC_NODE":"357.5908","DECAY_DATE":null,"COUNTRY_CODE":"US","LAUNCH_DATE":"2020-04-22","MEAN_MOTION_DOT":"-0.00000535","OBJECT_TYPE":"PAYLOAD","REV_AT_EPOCH":"9870","EPOCH":"2022-01-25T20:35:57.449184","TLE_LINE1":"1 45563U 20025AJ  22025.85830381 -.00000535  00000-0 -17001-4 0  9997","MEAN_ELEMENT_THEORY":"SGP4","REF_FRAME":"TEME","CENTER_NAME":"EARTH","ARG_OF_PERICENTER":"73.8175","TIME_SYSTEM":"UTC","SITE":"AFETR","TLE_LINE2":"2 45563  53.0557 357.5908 0001700  73.8175 286.3001 15.06398282 98704","PERIOD":"95.592","OBJECT_ID":"2020-025AJ","MEAN_ANOMALY":"286.3001","MEAN_MOTION_DDOT":"0.0000000000000","RCS_SIZE":"LARGE","MEAN_MOTION":"15.06398282","FILE":"3283711","ELEMENT_SET_NO":"999","PERIAPSIS":"546.042","GP_ID":"194642403"},{"FILE":"3283711","MEAN_MOTION":"15.06396055","RCS_SIZE":"LARGE","GP_ID":"194640652","PERIAPSIS":"545.930","ELEMENT_SET_NO":"999","PERIOD":"95.592","TLE_LINE2":"2 45564  53.0553 358.4841 0001871  71.2110 288.9082 15.06396055 98676","SITE":"AFETR","ARG_OF_PERICENTER":"71.2110","TIME_SYSTEM":"UTC","MEAN_MOTION_DDOT":"0.0000000000000","MEAN_ANOMALY":"288.9082","OBJECT_ID":"2020-025AK","REF_FRAME":"TEME","MEAN_ELEMENT_THEORY":"SGP4","TLE_LINE1":"1 45564U 20025AK  22025.65558218 -.00001134  00000-0 -57252-4 0  9990","MEAN_MOTION_DOT":"-0.00001134","OBJECT_TYPE":"PAYLOAD","EPOCH":"2022-01-25T15:44:02.300352","REV_AT_EPOCH":"9867","LAUNCH_DATE":"2020-04-22","CENTER_NAME":"EARTH","ECCENTRICITY":"0.00018710","APOAPSIS":"548.521","NORAD_CAT_ID":"45564","OBJECT_NAME":"STARLINK-1356","SEMIMAJOR_AXIS":"6925.361","EPHEMERIS_TYPE":"0","BSTAR":"-0.00005725200000","INCLINATION":"53.0553","CLASSIFICATION_TYPE":"U","COUNTRY_CODE":"US","DECAY_DATE":null,"RA_OF_ASC_NODE":"358.4841"},{"TIME_SYSTEM":"UTC","ARG_OF_PERICENTER":"60.2085","SITE":"AFETR","TLE_LINE2":"2 45565  53.0556 357.3325 0001765  60.2085 299.9080 15.06400613 98717","PERIOD":"95.592","OBJECT_ID":"2020-025AL","MEAN_ANOMALY":"299.9080","MEAN_MOTION_DDOT":"0.0000000000000","RCS_SIZE":"LARGE","MEAN_MOTION":"15.06400613","FILE":"3283711","ELEMENT_SET_NO":"999","PERIAPSIS":"545.989","GP_ID":"194640902","BSTAR":"0.00011757000000","INCLINATION":"53.0556","EPHEMERIS_TYPE":"0","CLASSIFICATION_TYPE":"U","SEMIMAJOR_AXIS":"6925.347","OBJECT_NAME":"STARLINK-1357","NORAD_CAT_ID":"45565","APOAPSIS":"548.434","ECCENTRICITY":"0.00017650","RA_OF_ASC_NODE":"357.3325","DECAY_DATE":null,"COUNTRY_CODE":"US","LAUNCH_DATE":"2020-04-22","REV_AT_EPOCH":"9871","OBJECT_TYPE":"PAYLOAD","MEAN_MOTION_DOT":"0.00001470","EPOCH":"2022-01-25T21:55:33.599712","MEAN_ELEMENT_THEORY":"SGP4","TLE_LINE1":"1 45565U 20025AL  22025.91358333  .00001470  00000-0  11757-3 0  9996","REF_FRAME":"TEME","CENTER_NAME":"EARTH"},{"RCS_SIZE":"LARGE","MEAN_MOTION":"15.06396152","FILE":"3283407","PERIAPSIS":"546.072","ELEMENT_SET_NO":"999","GP_ID":"194609257","TIME_SYSTEM":"UTC","ARG_OF_PERICENTER":"68.0181","SITE":"AFETR","TLE_LINE2":"2 45566  53.0549 359.6573 0001666  68.0181 292.0985 15.06396152 98634","PERIOD":"95.592","OBJECT_ID":"2020-025AM","MEAN_ANOMALY":"292.0985","MEAN_MOTION_DDOT":"0.0000000000000","LAUNCH_DATE":"2020-04-22","OBJECT_TYPE":"PAYLOAD","MEAN_MOTION_DOT":"-0.00001881","REV_AT_EPOCH":"9863","EPOCH":"2022-01-25T09:32:29.363712","REF_FRAME":"TEME","TLE_LINE1":"1 45566U 20025AM  22025.39756208 -.00001881  00000-0 -10744-3 0  9995","MEAN_ELEMENT_THEORY":"SGP4","CENTER_NAME":"EARTH","SEMIMAJOR_AXIS":"6925.360","INCLINATION":"53.0549","BSTAR":"-0.00010744000000","EPHEMERIS_TYPE":"0","CLASSIFICATION_TYPE":"U","OBJECT_NAME":"STARLINK-1358","APOAPSIS":"548.379","ECCENTRICITY":"0.00016660","NORAD_CAT_ID":"45566","RA_OF_ASC_NODE":"359.6573","DECAY_DATE":null,"COUNTRY_CODE":"US"}];
